ION SCV-004             
1 50993U 22002K   26068.68892644  .00006538  00000+0  23198-3 0  9998
2 50993  97.2961 128.2294 0007216   1.6783 358.4480 15.29369331230088
STARLINK-30549          
1 58030U 23156C   26068.29945700  .00000096  00000+0  15365-4 0  9999
2 58030  53.1601  80.1921 0001423  83.2302 276.8861 15.30189988136205
